[
    {
        "Altitude(m)": 591126.3806023826,
        "Argument of Periapsis(deg)": -0.015068773855314936,
        "Eccentricity": 0.0,
        "Inclination(deg)": 97.0,
        "Latitude(deg)": -77.58924427276118,
        "Longitude(deg)": -165.25847230574857,
        "Mean Anomaly(deg)": -100.36980448720836,
        "RAAN(deg)": 150.00396470241236,
        "Satellite Name": "Starlink Shell 3 1912",
        "Satellite Number": 1912,
        "Semi-Major Axis(m)": 6938478.169268562,
        "Time(s)": 380
    },
    {
        "Altitude(m)": 591207.2189961383,
        "Argument of Periapsis(deg)": -0.015465320535717962,
        "Eccentricity": 0.0,
        "Inclination(deg)": 97.0,
        "Latitude(deg)": -78.09623818478708,
        "Longitude(deg)": -166.99592435249465,
        "Mean Anomaly(deg)": -99.74432828950329,
        "RAAN(deg)": 150.00406903668636,
        "Satellite Name": "Starlink Shell 3 1912",
        "Satellite Number": 1912,
        "Semi-Major Axis(m)": 6938478.169268562,
        "Time(s)": 390
    },
    {
        "Altitude(m)": 591283.1970796362,
        "Argument of Periapsis(deg)": -0.015861867216120987,
        "Eccentricity": 0.0,
        "Inclination(deg)": 97.0,
        "Latitude(deg)": -78.59219647948221,
        "Longitude(deg)": -168.8801813486922,
        "Mean Anomaly(deg)": -99.1188520917983,
        "RAAN(deg)": 150.0041733709604,
        "Satellite Name": "Starlink Shell 3 1912",
        "Satellite Number": 1912,
        "Semi-Major Axis(m)": 6938478.169268562,
        "Time(s)": 400
    },
    {
        "Altitude(m)": 591354.2840706202,
        "Argument of Periapsis(deg)": -0.01625841389652401,
        "Eccentricity": 0.0,
        "Inclination(deg)": 97.0,
        "Latitude(deg)": -79.07562239017392,
        "Longitude(deg)": -170.92731547733345,
        "Mean Anomaly(deg)": -98.49337589409322,
        "RAAN(deg)": 150.0042777052344,
        "Satellite Name": "Starlink Shell 3 1912",
        "Satellite Number": 1912,
        "Semi-Major Axis(m)": 6938478.169268562,
        "Time(s)": 410
    },
    {
        "Altitude(m)": 591420.4511645997,
        "Argument of Periapsis(deg)": -0.016654960576927034,
        "Eccentricity": 0.0,
        "Inclination(deg)": 97.0,
        "Latitude(deg)": -79.54478359197405,
        "Longitude(deg)": -173.1548410207961,
        "Mean Anomaly(deg)": -97.8678996963882,
        "RAAN(deg)": 150.00438203950839,
        "Satellite Name": "Starlink Shell 3 1912",
        "Satellite Number": 1912,
        "Semi-Major Axis(m)": 6938478.169268562,
        "Time(s)": 420
    },
    {
        "Altitude(m)": 591481.6715470062,
        "Argument of Periapsis(deg)": -0.01705150725733006,
        "Eccentricity": 0.0,
        "Inclination(deg)": 97.0,
        "Latitude(deg)": -79.9976786823638,
        "Longitude(deg)": -175.58153976230972,
        "Mean Anomaly(deg)": -97.24242349868311,
        "RAAN(deg)": 150.00448637378238,
        "Satellite Name": "Starlink Shell 3 1912",
        "Satellite Number": 1912,
        "Semi-Major Axis(m)": 6938478.169268562,
        "Time(s)": 430
    },
    {
        "Altitude(m)": 591537.9204045468,
        "Argument of Periapsis(deg)": -0.017448053937733084,
        "Eccentricity": 0.0,
        "Inclination(deg)": 97.0,
        "Latitude(deg)": -80.43200341973181,
        "Longitude(deg)": -178.22709047015076,
        "Mean Anomaly(deg)": -96.61694730097808,
        "RAAN(deg)": 150.0045907080564,
        "Satellite Name": "Starlink Shell 3 1912",
        "Satellite Number": 1912,
        "Semi-Major Axis(m)": 6938478.169268562,
        "Time(s)": 440
    },
    {
        "Altitude(m)": 591589.1749356408,
        "Argument of Periapsis(deg)": -0.017844600618136107,
        "Eccentricity": 0.0,
        "Inclination(deg)": 97.0,
        "Latitude(deg)": -80.84512003331703,
        "Longitude(deg)": 178.88858191952397,
        "Mean Anomaly(deg)": -95.99147110327308,
        "RAAN(deg)": 150.0046950423304,
        "Satellite Name": "Starlink Shell 3 1912",
        "Satellite Number": 1912,
        "Semi-Major Axis(m)": 6938478.169268562,
        "Time(s)": 450
    },
    {
        "Altitude(m)": 591635.4143600883,
        "Argument of Periapsis(deg)": -0.018241147298539134,
        "Eccentricity": 0.0,
        "Inclination(deg)": 97.0,
        "Latitude(deg)": -81.23403494379316,
        "Longitude(deg)": 175.74634205143448,
        "Mean Anomaly(deg)": -95.36599490556799,
        "RAAN(deg)": 150.0047993766044,
        "Satellite Name": "Starlink Shell 3 1912",
        "Satellite Number": 1912,
        "Semi-Major Axis(m)": 6938478.169268562,
        "Time(s)": 460
    },
    {
        "Altitude(m)": 591676.6199278064,
        "Argument of Periapsis(deg)": -0.018637693978942157,
        "Eccentricity": 0.0,
        "Inclination(deg)": 97.0,
        "Latitude(deg)": -81.59539281772948,
        "Longitude(deg)": 172.32936688103996,
        "Mean Anomaly(deg)": -94.74051870786298,
        "RAAN(deg)": 150.0049037108784,
        "Satellite Name": "Starlink Shell 3 1912",
        "Satellite Number": 1912,
        "Semi-Major Axis(m)": 6938478.169268562,
        "Time(s)": 470
    },
    {
        "Altitude(m)": 591712.7749267564,
        "Argument of Periapsis(deg)": -0.019034240659345183,
        "Eccentricity": 0.0,
        "Inclination(deg)": 97.0,
        "Latitude(deg)": -81.92549773575179,
        "Longitude(deg)": 168.62522867649741,
        "Mean Anomaly(deg)": -94.11504251015788,
        "RAAN(deg)": 150.00500804515244,
        "Satellite Name": "Starlink Shell 3 1912",
        "Satellite Number": 1912,
        "Semi-Major Axis(m)": 6938478.169268562,
        "Time(s)": 480
    },
    {
        "Altitude(m)": 591743.8646899746,
        "Argument of Periapsis(deg)": -0.019430787339748207,
        "Eccentricity": 0.0,
        "Inclination(deg)": 97.0,
        "Latitude(deg)": -82.22037459456443,
        "Longitude(deg)": 164.6285337399173,
        "Mean Anomaly(deg)": -93.48956631245287,
        "RAAN(deg)": 150.00511237942644,
        "Satellite Name": "Starlink Shell 3 1912",
        "Satellite Number": 1912,
        "Semi-Major Axis(m)": 6938478.169268562,
        "Time(s)": 490
    },
    {
        "Altitude(m)": 591769.8766017815,
        "Argument of Periapsis(deg)": -0.019827334020151237,
        "Eccentricity": 0.0,
        "Inclination(deg)": 97.0,
        "Latitude(deg)": -82.47588421214317,
        "Longitude(deg)": 160.34395012433654,
        "Mean Anomaly(deg)": -92.86409011474787,
        "RAAN(deg)": 150.00521671370046,
        "Satellite Name": "Starlink Shell 3 1912",
        "Satellite Number": 1912,
        "Semi-Major Axis(m)": 6938478.169268562,
        "Time(s)": 500
    },
    {
        "Altitude(m)": 591790.8001030711,
        "Argument of Periapsis(deg)": -0.020223880700554257,
        "Eccentricity": 0.0,
        "Inclination(deg)": 97.0,
        "Latitude(deg)": -82.68790183509518,
        "Longitude(deg)": 155.78922287390878,
        "Mean Anomaly(deg)": -92.23861391704276,
        "RAAN(deg)": 150.00532104797446,
        "Satellite Name": "Starlink Shell 3 1912",
        "Satellite Number": 1912,
        "Semi-Major Axis(m)": 6938478.169268562,
        "Time(s)": 510
    },
    {
        "Altitude(m)": 591806.6266958012,
        "Argument of Periapsis(deg)": -0.020620427380957283,
        "Eccentricity": 0.0,
        "Inclination(deg)": 97.0,
        "Latitude(deg)": -82.85255875801867,
        "Longitude(deg)": 150.99751440822394,
        "Mean Anomaly(deg)": -91.61313771933774,
        "RAAN(deg)": 150.0054253822485,
        "Satellite Name": "Starlink Shell 3 1912",
        "Satellite Number": 1912,
        "Semi-Major Axis(m)": 6938478.169268562,
        "Time(s)": 520
    },
    {
        "Altitude(m)": 591817.3499465208,
        "Argument of Periapsis(deg)": -0.021016974061360306,
        "Eccentricity": 0.0,
        "Inclination(deg)": 97.0,
        "Latitude(deg)": -82.9665300673813,
        "Longitude(deg)": 146.01822394721876,
        "Mean Anomaly(deg)": -90.98766152163269,
        "RAAN(deg)": 150.00552971652246,
        "Satellite Name": "Starlink Shell 3 1912",
        "Satellite Number": 1912,
        "Semi-Major Axis(m)": 6938478.169268562,
        "Time(s)": 530
    },
    {
        "Altitude(m)": 591822.9654891411,
        "Argument of Periapsis(deg)": -0.021413520741763333,
        "Eccentricity": 0.0,
        "Inclination(deg)": 97.0,
        "Latitude(deg)": -83.02733131114891,
        "Longitude(deg)": 140.91551390539513,
        "Mean Anomaly(deg)": -90.36218532392762,
        "RAAN(deg)": 150.0056340507965,
        "Satellite Name": "Starlink Shell 3 1912",
        "Satellite Number": 1912,
        "Semi-Major Axis(m)": 6938478.169268562,
        "Time(s)": 540
    },
    {
        "Altitude(m)": 591823.471026742,
        "Argument of Periapsis(deg)": -0.021810067422166356,
        "Eccentricity": 0.0,
        "Inclination(deg)": 97.0,
        "Latitude(deg)": -83.03357093599098,
        "Longitude(deg)": 135.76422466663803,
        "Mean Anomaly(deg)": -89.7367091262226,
        "RAAN(deg)": 150.0057383850705,
        "Satellite Name": "Starlink Shell 3 1912",
        "Satellite Number": 1912,
        "Semi-Major Axis(m)": 6938478.169268562,
        "Time(s)": 550
    },
    {
        "Altitude(m)": 591818.8663325473,
        "Argument of Periapsis(deg)": -0.022206614102569383,
        "Eccentricity": 0.0,
        "Inclination(deg)": 97.0,
        "Latitude(deg)": -82.9851034186328,
        "Longitude(deg)": 130.64361595629043,
        "Mean Anomaly(deg)": -89.11123292851755,
        "RAAN(deg)": 150.0058427193445,
        "Satellite Name": "Starlink Shell 3 1912",
        "Satellite Number": 1912,
        "Semi-Major Axis(m)": 6938478.169268562,
        "Time(s)": 560
    }
]